<?xml version="1.0" encoding="UTF-8"?>
<ndm xmlns:xsi="http://www.w3.org/2001/XMLSchema-instance" xsi:noNamespaceSchemaLocation="https://sanaregistry.org/r/ndmxml_unqualified/ndmxml-2.0.0-master-2.0.xsd">
<omm id="CCSDS_OMM_VERS" version="2.0">
<header><CREATION_DATE/><ORIGINATOR/></header><body><segment><metadata><OBJECT_NAME>KUIPER-00016</OBJECT_NAME><OBJECT_ID>2025-088J</OBJECT_ID><CENTER_NAME>EARTH</CENTER_NAME><REF_FRAME>TEME</REF_FRAME><TIME_SYSTEM>UTC</TIME_SYSTEM><MEAN_ELEMENT_THEORY>SGP4</MEAN_ELEMENT_THEORY></metadata><data><meanElements><EPOCH>2025-07-16T05:24:57.235680</EPOCH><MEAN_MOTION>15.19095321</MEAN_MOTION><ECCENTRICITY>.0008216</ECCENTRICITY><INCLINATION>51.8796</INCLINATION><RA_OF_ASC_NODE>83.0117</RA_OF_ASC_NODE><ARG_OF_PERICENTER>23.5201</ARG_OF_PERICENTER><MEAN_ANOMALY>336.6153</MEAN_ANOMALY></meanElements><tleParameters><EPHEMERIS_TYPE>0</EPHEMERIS_TYPE><CLASSIFICATION_TYPE>U</CLASSIFICATION_TYPE><NORAD_CAT_ID>63732</NORAD_CAT_ID><ELEMENT_SET_NO>999</ELEMENT_SET_NO><REV_AT_EPOCH>1223</REV_AT_EPOCH><BSTAR>-.11862E-1</BSTAR><MEAN_MOTION_DOT>-.244534E-2</MEAN_MOTION_DOT><MEAN_MOTION_DDOT>0</MEAN_MOTION_DDOT></tleParameters></data></segment></body></omm>
<omm id="CCSDS_OMM_VERS" version="2.0">
<header><CREATION_DATE/><ORIGINATOR/></header><body><segment><metadata><OBJECT_NAME>KUIPER-00018</OBJECT_NAME><OBJECT_ID>2025-088K</OBJECT_ID><CENTER_NAME>EARTH</CENTER_NAME><REF_FRAME>TEME</REF_FRAME><TIME_SYSTEM>UTC</TIME_SYSTEM><MEAN_ELEMENT_THEORY>SGP4</MEAN_ELEMENT_THEORY></metadata><data><meanElements><EPOCH>2025-07-16T00:38:25.202976</EPOCH><MEAN_MOTION>15.37062919</MEAN_MOTION><ECCENTRICITY>.000616</ECCENTRICITY><INCLINATION>51.8666</INCLINATION><RA_OF_ASC_NODE>81.0675</RA_OF_ASC_NODE><ARG_OF_PERICENTER>30.0773</ARG_OF_PERICENTER><MEAN_ANOMALY>330.0566</MEAN_ANOMALY></meanElements><tleParameters><EPHEMERIS_TYPE>0</EPHEMERIS_TYPE><CLASSIFICATION_TYPE>U</CLASSIFICATION_TYPE><NORAD_CAT_ID>63733</NORAD_CAT_ID><ELEMENT_SET_NO>999</ELEMENT_SET_NO><REV_AT_EPOCH>1224</REV_AT_EPOCH><BSTAR>.3582E-3</BSTAR><MEAN_MOTION_DOT>.12831E-3</MEAN_MOTION_DOT><MEAN_MOTION_DDOT>0</MEAN_MOTION_DDOT></tleParameters></data></segment></body></omm>
<omm id="CCSDS_OMM_VERS" version="2.0">
<header><CREATION_DATE/><ORIGINATOR/></header><body><segment><metadata><OBJECT_NAME>KUIPER-00019</OBJECT_NAME><OBJECT_ID>2025-088L</OBJECT_ID><CENTER_NAME>EARTH</CENTER_NAME><REF_FRAME>TEME</REF_FRAME><TIME_SYSTEM>UTC</TIME_SYSTEM><MEAN_ELEMENT_THEORY>SGP4</MEAN_ELEMENT_THEORY></metadata><data><meanElements><EPOCH>2025-07-15T22:53:25.208736</EPOCH><MEAN_MOTION>15.36912132</MEAN_MOTION><ECCENTRICITY>.0003924</ECCENTRICITY><INCLINATION>51.8681</INCLINATION><RA_OF_ASC_NODE>81.3373</RA_OF_ASC_NODE><ARG_OF_PERICENTER>46.6241</ARG_OF_PERICENTER><MEAN_ANOMALY>313.5072</MEAN_ANOMALY></meanElements><tleParameters><EPHEMERIS_TYPE>0</EPHEMERIS_TYPE><CLASSIFICATION_TYPE>U</CLASSIFICATION_TYPE><NORAD_CAT_ID>63734</NORAD_CAT_ID><ELEMENT_SET_NO>999</ELEMENT_SET_NO><REV_AT_EPOCH>1223</REV_AT_EPOCH><BSTAR>.35385E-3</BSTAR><MEAN_MOTION_DOT>.12604E-3</MEAN_MOTION_DOT><MEAN_MOTION_DDOT>0</MEAN_MOTION_DDOT></tleParameters></data></segment></body></omm>
<omm id="CCSDS_OMM_VERS" version="2.0">
<header><CREATION_DATE/><ORIGINATOR/></header><body><segment><metadata><OBJECT_NAME>KUIPER-00020</OBJECT_NAME><OBJECT_ID>2025-088M</OBJECT_ID><CENTER_NAME>EARTH</CENTER_NAME><REF_FRAME>TEME</REF_FRAME><TIME_SYSTEM>UTC</TIME_SYSTEM><MEAN_ELEMENT_THEORY>SGP4</MEAN_ELEMENT_THEORY></metadata><data><meanElements><EPOCH>2025-07-15T22:17:50.642304</EPOCH><MEAN_MOTION>15.34045193</MEAN_MOTION><ECCENTRICITY>.0006646</ECCENTRICITY><INCLINATION>51.8701</INCLINATION><RA_OF_ASC_NODE>81.9052</RA_OF_ASC_NODE><ARG_OF_PERICENTER>33.5636</ARG_OF_PERICENTER><MEAN_ANOMALY>326.5769</MEAN_ANOMALY></meanElements><tleParameters><EPHEMERIS_TYPE>0</EPHEMERIS_TYPE><CLASSIFICATION_TYPE>U</CLASSIFICATION_TYPE><NORAD_CAT_ID>63735</NORAD_CAT_ID><ELEMENT_SET_NO>999</ELEMENT_SET_NO><REV_AT_EPOCH>1243</REV_AT_EPOCH><BSTAR>.2927E-3</BSTAR><MEAN_MOTION_DOT>.9427E-4</MEAN_MOTION_DOT><MEAN_MOTION_DDOT>0</MEAN_MOTION_DDOT></tleParameters></data></segment></body></omm>
<omm id="CCSDS_OMM_VERS" version="2.0">
<header><CREATION_DATE/><ORIGINATOR/></header><body><segment><metadata><OBJECT_NAME>KUIPER-00021</OBJECT_NAME><OBJECT_ID>2025-088N</OBJECT_ID><CENTER_NAME>EARTH</CENTER_NAME><REF_FRAME>TEME</REF_FRAME><TIME_SYSTEM>UTC</TIME_SYSTEM><MEAN_ELEMENT_THEORY>SGP4</MEAN_ELEMENT_THEORY></metadata><data><meanElements><EPOCH>2025-07-16T05:01:14.571552</EPOCH><MEAN_MOTION>15.32696562</MEAN_MOTION><ECCENTRICITY>.0007476</ECCENTRICITY><INCLINATION>51.8675</INCLINATION><RA_OF_ASC_NODE>80.7683</RA_OF_ASC_NODE><ARG_OF_PERICENTER>27.7395</ARG_OF_PERICENTER><MEAN_ANOMALY>332.3987</MEAN_ANOMALY></meanElements><tleParameters><EPHEMERIS_TYPE>0</EPHEMERIS_TYPE><CLASSIFICATION_TYPE>U</CLASSIFICATION_TYPE><NORAD_CAT_ID>63736</NORAD_CAT_ID><ELEMENT_SET_NO>999</ELEMENT_SET_NO><REV_AT_EPOCH>1230</REV_AT_EPOCH><BSTAR>-.85512E-2</BSTAR><MEAN_MOTION_DOT>-.265282E-2</MEAN_MOTION_DOT><MEAN_MOTION_DDOT>0</MEAN_MOTION_DDOT></tleParameters></data></segment></body></omm>
<omm id="CCSDS_OMM_VERS" version="2.0">
<header><CREATION_DATE/><ORIGINATOR/></header><body><segment><metadata><OBJECT_NAME>KUIPER-00023</OBJECT_NAME><OBJECT_ID>2025-088P</OBJECT_ID><CENTER_NAME>EARTH</CENTER_NAME><REF_FRAME>TEME</REF_FRAME><TIME_SYSTEM>UTC</TIME_SYSTEM><MEAN_ELEMENT_THEORY>SGP4</MEAN_ELEMENT_THEORY></metadata><data><meanElements><EPOCH>2025-07-16T02:42:26.976672</EPOCH><MEAN_MOTION>15.30236234</MEAN_MOTION><ECCENTRICITY>.0008503</ECCENTRICITY><INCLINATION>51.8675</INCLINATION><RA_OF_ASC_NODE>81.6362</RA_OF_ASC_NODE><ARG_OF_PERICENTER>29.6359</ARG_OF_PERICENTER><MEAN_ANOMALY>330.5105</MEAN_ANOMALY></meanElements><tleParameters><EPHEMERIS_TYPE>0</EPHEMERIS_TYPE><CLASSIFICATION_TYPE>U</CLASSIFICATION_TYPE><NORAD_CAT_ID>63737</NORAD_CAT_ID><ELEMENT_SET_NO>999</ELEMENT_SET_NO><REV_AT_EPOCH>1258</REV_AT_EPOCH><BSTAR>-.4729E-3</BSTAR><MEAN_MOTION_DOT>-.14389E-3</MEAN_MOTION_DOT><MEAN_MOTION_DDOT>0</MEAN_MOTION_DDOT></tleParameters></data></segment></body></omm>
<omm id="CCSDS_OMM_VERS" version="2.0">
<header><CREATION_DATE/><ORIGINATOR/></header><body><segment><metadata><OBJECT_NAME>KUIPER-00024</OBJECT_NAME><OBJECT_ID>2025-088Q</OBJECT_ID><CENTER_NAME>EARTH</CENTER_NAME><REF_FRAME>TEME</REF_FRAME><TIME_SYSTEM>UTC</TIME_SYSTEM><MEAN_ELEMENT_THEORY>SGP4</MEAN_ELEMENT_THEORY></metadata><data><meanElements><EPOCH>2025-07-15T21:29:44.368224</EPOCH><MEAN_MOTION>15.38247441</MEAN_MOTION><ECCENTRICITY>.0002096</ECCENTRICITY><INCLINATION>51.8709</INCLINATION><RA_OF_ASC_NODE>80.9792</RA_OF_ASC_NODE><ARG_OF_PERICENTER>86.4066</ARG_OF_PERICENTER><MEAN_ANOMALY>273.7161</MEAN_ANOMALY></meanElements><tleParameters><EPHEMERIS_TYPE>0</EPHEMERIS_TYPE><CLASSIFICATION_TYPE>U</CLASSIFICATION_TYPE><NORAD_CAT_ID>63738</NORAD_CAT_ID><ELEMENT_SET_NO>999</ELEMENT_SET_NO><REV_AT_EPOCH>1270</REV_AT_EPOCH><BSTAR>.35589E-3</BSTAR><MEAN_MOTION_DOT>.13252E-3</MEAN_MOTION_DOT><MEAN_MOTION_DDOT>0</MEAN_MOTION_DDOT></tleParameters></data></segment></body></omm>
<omm id="CCSDS_OMM_VERS" version="2.0">
<header><CREATION_DATE/><ORIGINATOR/></header><body><segment><metadata><OBJECT_NAME>KUIPER-00025</OBJECT_NAME><OBJECT_ID>2025-088R</OBJECT_ID><CENTER_NAME>EARTH</CENTER_NAME><REF_FRAME>TEME</REF_FRAME><TIME_SYSTEM>UTC</TIME_SYSTEM><MEAN_ELEMENT_THEORY>SGP4</MEAN_ELEMENT_THEORY></metadata><data><meanElements><EPOCH>2025-07-15T23:13:33.888576</EPOCH><MEAN_MOTION>15.36732820</MEAN_MOTION><ECCENTRICITY>.000564</ECCENTRICITY><INCLINATION>51.8656</INCLINATION><RA_OF_ASC_NODE>81.4147</RA_OF_ASC_NODE><ARG_OF_PERICENTER>38.8552</ARG_OF_PERICENTER><MEAN_ANOMALY>321.2839</MEAN_ANOMALY></meanElements><tleParameters><EPHEMERIS_TYPE>0</EPHEMERIS_TYPE><CLASSIFICATION_TYPE>U</CLASSIFICATION_TYPE><NORAD_CAT_ID>63739</NORAD_CAT_ID><ELEMENT_SET_NO>999</ELEMENT_SET_NO><REV_AT_EPOCH>1256</REV_AT_EPOCH><BSTAR>.3526E-3</BSTAR><MEAN_MOTION_DOT>.12486E-3</MEAN_MOTION_DOT><MEAN_MOTION_DDOT>0</MEAN_MOTION_DDOT></tleParameters></data></segment></body></omm>

</ndm>
