KUIPER-00016            
1 63732U 25088J   25197.22566245 -.00244534  00000+0 -11862-1 0  9992
2 63732  51.8796  83.0117 0008216  23.5201 336.6153 15.19095321 12230
KUIPER-00018            
1 63733U 25088K   25197.02668059  .00012831  00000+0  35820-3 0  9990
2 63733  51.8666  81.0675 0006160  30.0773 330.0566 15.37062919 12241
KUIPER-00019            
1 63734U 25088L   25196.95376399  .00012604  00000+0  35385-3 0  9999
2 63734  51.8681  81.3373 0003924  46.6241 313.5072 15.36912132 12232
KUIPER-00020            
1 63735U 25088M   25196.92905836  .00009427  00000+0  29270-3 0  9996
2 63735  51.8701  81.9052 0006646  33.5636 326.5769 15.34045193 12434
KUIPER-00021            
1 63736U 25088N   25197.20919643 -.00265282  00000+0 -85512-2 0  9995
2 63736  51.8675  80.7683 0007476  27.7395 332.3987 15.32696562 12304
KUIPER-00023            
1 63737U 25088P   25197.11281223 -.00014389  00000+0 -47290-3 0  9994
2 63737  51.8675  81.6362 0008503  29.6359 330.5105 15.30236234 12588
KUIPER-00024            
1 63738U 25088Q   25196.89565241  .00013252  00000+0  35589-3 0  9998
2 63738  51.8709  80.9792 0002096  86.4066 273.7161 15.38247441 12707
KUIPER-00025            
1 63739U 25088R   25196.96775334  .00012486  00000+0  35260-3 0  9997
2 63739  51.8656  81.4147 0005640  38.8552 321.2839 15.36732820 12561
